[
  {
    "OBJECT_NAME": "STARLINK-5637",
    "OBJECT_ID": "23014AT",
    "EPOCH": "2025-11-11T06:51:49.357152",
    "MEAN_MOTION": 14.98332988,
    "ECCENTRICITY": 0.0003234,
    "INCLINATION": 70.0007,
    "RA_OF_ASC_NODE": 42.9696,
    "ARG_OF_PERICENTER": 271.5919,
    "MEAN_ANOMALY": 88.487,
    "EPHEMERIS_TYPE": 0,
    "CLASSIFICATION_TYPE": "U",
    "NORAD_CAT_ID": 55432,
    "ELEMENT_SET_NO": 999,
    "REV_AT_EPOCH": 15333,
    "BSTAR": 6.1498e-05,
    "MEAN_MOTION_DOT": 6.41e-06,
    "MEAN_MOTION_DDOT": 0.0,
    "TLE_LINE1": "1 55432U 23014AT  25315.28598793  .00000641  00000+0  61498-4 0  9998",
    "TLE_LINE2": "2 55432  70.0007  42.9696 0003234 271.5919  88.4870 14.98332988153332",
    "COMMENT": "Grouped by shell and plane from TLE"
  },
  {
    "OBJECT_NAME": "STARLINK-5570",
    "OBJECT_ID": "23014AU",
    "EPOCH": "2025-11-11T06:33:33.120000",
    "MEAN_MOTION": 14.98333546,
    "ECCENTRICITY": 0.0003225,
    "INCLINATION": 70.0009,
    "RA_OF_ASC_NODE": 42.9231,
    "ARG_OF_PERICENTER": 268.6076,
    "MEAN_ANOMALY": 91.4714,
    "EPHEMERIS_TYPE": 0,
    "CLASSIFICATION_TYPE": "U",
    "NORAD_CAT_ID": 55433,
    "ELEMENT_SET_NO": 999,
    "REV_AT_EPOCH": 15333,
    "BSTAR": 6.239900000000001e-05,
    "MEAN_MOTION_DOT": 6.52e-06,
    "MEAN_MOTION_DDOT": 0.0,
    "TLE_LINE1": "1 55433U 23014AU  25315.27330000  .00000652  00000+0  62399-4 0  9996",
    "TLE_LINE2": "2 55433  70.0009  42.9231 0003225 268.6076  91.4714 14.98333546153333",
    "COMMENT": "Grouped by shell and plane from TLE"
  },
  {
    "OBJECT_NAME": "STARLINK-5621",
    "OBJECT_ID": "23014AV",
    "EPOCH": "2025-11-11T07:03:36.295776",
    "MEAN_MOTION": 14.98334228,
    "ECCENTRICITY": 0.0003151,
    "INCLINATION": 70.0009,
    "RA_OF_ASC_NODE": 42.9976,
    "ARG_OF_PERICENTER": 269.3959,
    "MEAN_ANOMALY": 90.6839,
    "EPHEMERIS_TYPE": 0,
    "CLASSIFICATION_TYPE": "U",
    "NORAD_CAT_ID": 55434,
    "ELEMENT_SET_NO": 999,
    "REV_AT_EPOCH": 15333,
    "BSTAR": 3.4508e-05,
    "MEAN_MOTION_DOT": 3.19e-06,
    "MEAN_MOTION_DDOT": 0.0,
    "TLE_LINE1": "1 55434U 23014AV  25315.29417009  .00000319  00000+0  34508-4 0  9995",
    "TLE_LINE2": "2 55434  70.0009  42.9976 0003151 269.3959  90.6839 14.98334228153333",
    "COMMENT": "Grouped by shell and plane from TLE"
  },
  {
    "OBJECT_NAME": "STARLINK-5626",
    "OBJECT_ID": "23014AW",
    "EPOCH": "2025-11-11T05:15:52.262496",
    "MEAN_MOTION": 14.98084269,
    "ECCENTRICITY": 0.0001726,
    "INCLINATION": 70.0002,
    "RA_OF_ASC_NODE": 43.1381,
    "ARG_OF_PERICENTER": 260.7739,
    "MEAN_ANOMALY": 99.3225,
    "EPHEMERIS_TYPE": 0,
    "CLASSIFICATION_TYPE": "U",
    "NORAD_CAT_ID": 55435,
    "ELEMENT_SET_NO": 999,
    "REV_AT_EPOCH": 15332,
    "BSTAR": 0.0,
    "MEAN_MOTION_DOT": -0.00030813,
    "MEAN_MOTION_DDOT": 0.0,
    "TLE_LINE1": "1 55435U 23014AW  25315.21935489 -.00030813  00000+0 -26027-2 0  9994",
    "TLE_LINE2": "2 55435  70.0002  43.1381 0001726 260.7739  99.3225 14.98084269153328",
    "COMMENT": "Grouped by shell and plane from TLE"
  },
  {
    "OBJECT_NAME": "STARLINK-5640",
    "OBJECT_ID": "23014AX",
    "EPOCH": "2025-11-11T07:09:36.994176",
    "MEAN_MOTION": 14.98336697,
    "ECCENTRICITY": 0.0002978,
    "INCLINATION": 70.0012,
    "RA_OF_ASC_NODE": 43.0117,
    "ARG_OF_PERICENTER": 265.7481,
    "MEAN_ANOMALY": 94.3338,
    "EPHEMERIS_TYPE": 0,
    "CLASSIFICATION_TYPE": "U",
    "NORAD_CAT_ID": 55436,
    "ELEMENT_SET_NO": 999,
    "REV_AT_EPOCH": 15333,
    "BSTAR": 3.8706000000000005e-05,
    "MEAN_MOTION_DOT": 3.69e-06,
    "MEAN_MOTION_DDOT": 0.0,
    "TLE_LINE1": "1 55436U 23014AX  25315.29834484  .00000369  00000+0  38706-4 0  9996",
    "TLE_LINE2": "2 55436  70.0012  43.0117 0002978 265.7481  94.3338 14.98336697153331",
    "COMMENT": "Grouped by shell and plane from TLE"
  },
  {
    "OBJECT_NAME": "STARLINK-5634",
    "OBJECT_ID": "23014BA",
    "EPOCH": "2025-11-11T07:15:37.742688",
    "MEAN_MOTION": 14.98326292,
    "ECCENTRICITY": 0.0003045,
    "INCLINATION": 70.0003,
    "RA_OF_ASC_NODE": 43.0263,
    "ARG_OF_PERICENTER": 275.6485,
    "MEAN_ANOMALY": 84.4327,
    "EPHEMERIS_TYPE": 0,
    "CLASSIFICATION_TYPE": "U",
    "NORAD_CAT_ID": 55439,
    "ELEMENT_SET_NO": 999,
    "REV_AT_EPOCH": 15333,
    "BSTAR": 0.0001246,
    "MEAN_MOTION_DOT": 1.394e-05,
    "MEAN_MOTION_DDOT": 0.0,
    "TLE_LINE1": "1 55439U 23014BA  25315.30252017  .00001394  00000+0  12460-3 0  9994",
    "TLE_LINE2": "2 55439  70.0003  43.0263 0003045 275.6485  84.4327 14.98326292153334",
    "COMMENT": "Grouped by shell and plane from TLE"
  },
  {
    "OBJECT_NAME": "STARLINK-6045",
    "OBJECT_ID": "23064Q",
    "EPOCH": "2025-11-11T07:15:50.509152",
    "MEAN_MOTION": 14.98327523,
    "ECCENTRICITY": 0.0002925,
    "INCLINATION": 70.0004,
    "RA_OF_ASC_NODE": 42.7501,
    "ARG_OF_PERICENTER": 266.8633,
    "MEAN_ANOMALY": 93.2192,
    "EPHEMERIS_TYPE": 0,
    "CLASSIFICATION_TYPE": "U",
    "NORAD_CAT_ID": 56462,
    "ELEMENT_SET_NO": 999,
    "REV_AT_EPOCH": 13850,
    "BSTAR": 0.00015344,
    "MEAN_MOTION_DOT": 1.738e-05,
    "MEAN_MOTION_DDOT": 0.0,
    "TLE_LINE1": "1 56462U 23064Q   25315.30266793  .00001738  00000+0  15344-3 0  9998",
    "TLE_LINE2": "2 56462  70.0004  42.7501 0002925 266.8633  93.2192 14.98327523138504",
    "COMMENT": "Grouped by shell and plane from TLE"
  },
  {
    "OBJECT_NAME": "STARLINK-6054",
    "OBJECT_ID": "23064T",
    "EPOCH": "2025-11-11T07:27:37.273248",
    "MEAN_MOTION": 14.98332279,
    "ECCENTRICITY": 0.0003093,
    "INCLINATION": 70.0,
    "RA_OF_ASC_NODE": 42.7721,
    "ARG_OF_PERICENTER": 264.713,
    "MEAN_ANOMALY": 95.3676,
    "EPHEMERIS_TYPE": 0,
    "CLASSIFICATION_TYPE": "U",
    "NORAD_CAT_ID": 56465,
    "ELEMENT_SET_NO": 999,
    "REV_AT_EPOCH": 13850,
    "BSTAR": 6.901e-05,
    "MEAN_MOTION_DOT": 7.31e-06,
    "MEAN_MOTION_DDOT": 0.0,
    "TLE_LINE1": "1 56465U 23064T   25315.31084807  .00000731  00000+0  69010-4 0  9998",
    "TLE_LINE2": "2 56465  70.0000  42.7721 0003093 264.7130  95.3676 14.98332279138507",
    "COMMENT": "Grouped by shell and plane from TLE"
  },
  {
    "OBJECT_NAME": "STARLINK-6214",
    "OBJECT_ID": "23064AJ",
    "EPOCH": "2025-11-11T06:19:47.030592",
    "MEAN_MOTION": 15.16545638,
    "ECCENTRICITY": 0.0005637,
    "INCLINATION": 69.9948,
    "RA_OF_ASC_NODE": 41.0227,
    "ARG_OF_PERICENTER": 333.9287,
    "MEAN_ANOMALY": 26.1597,
    "EPHEMERIS_TYPE": 0,
    "CLASSIFICATION_TYPE": "U",
    "NORAD_CAT_ID": 56480,
    "ELEMENT_SET_NO": 999,
    "REV_AT_EPOCH": 13855,
    "BSTAR": 0.0014387,
    "MEAN_MOTION_DOT": 0.00028136,
    "MEAN_MOTION_DDOT": 0.0,
    "TLE_LINE1": "1 56480U 23064AJ  25315.26373878  .00028136  00000+0  14387-2 0  9992",
    "TLE_LINE2": "2 56480  69.9948  41.0227 0005637 333.9287  26.1597 15.16545638138558",
    "COMMENT": "Grouped by shell and plane from TLE"
  },
  {
    "OBJECT_NAME": "STARLINK-6196",
    "OBJECT_ID": "23064AR",
    "EPOCH": "2025-11-11T07:21:38.416032",
    "MEAN_MOTION": 14.98262404,
    "ECCENTRICITY": 0.0002506,
    "INCLINATION": 70.0001,
    "RA_OF_ASC_NODE": 42.7951,
    "ARG_OF_PERICENTER": 250.2415,
    "MEAN_ANOMALY": 109.8474,
    "EPHEMERIS_TYPE": 0,
    "CLASSIFICATION_TYPE": "U",
    "NORAD_CAT_ID": 56487,
    "ELEMENT_SET_NO": 999,
    "REV_AT_EPOCH": 13850,
    "BSTAR": 0.0010741000000000001,
    "MEAN_MOTION_DOT": 0.00012723,
    "MEAN_MOTION_DDOT": 0.0,
    "TLE_LINE1": "1 56487U 23064AR  25315.30669463  .00012723  00000+0  10741-2 0  9997",
    "TLE_LINE2": "2 56487  70.0001  42.7951 0002506 250.2415 109.8474 14.98262404138500",
    "COMMENT": "Grouped by shell and plane from TLE"
  },
  {
    "OBJECT_NAME": "STARLINK-6204",
    "OBJECT_ID": "23064AS",
    "EPOCH": "2025-11-11T06:45:33.680448",
    "MEAN_MOTION": 14.98351172,
    "ECCENTRICITY": 0.0003545,
    "INCLINATION": 70.0003,
    "RA_OF_ASC_NODE": 43.1068,
    "ARG_OF_PERICENTER": 272.3698,
    "MEAN_ANOMALY": 87.7055,
    "EPHEMERIS_TYPE": 0,
    "CLASSIFICATION_TYPE": "U",
    "NORAD_CAT_ID": 56488,
    "ELEMENT_SET_NO": 999,
    "REV_AT_EPOCH": 13849,
    "BSTAR": 0.00020250000000000002,
    "MEAN_MOTION_DOT": 2.325e-05,
    "MEAN_MOTION_DDOT": 0.0,
    "TLE_LINE1": "1 56488U 23064AS  25315.28163982  .00002325  00000+0  20250-3 0  9994",
    "TLE_LINE2": "2 56488  70.0003  43.1068 0003545 272.3698  87.7055 14.98351172138497",
    "COMMENT": "Grouped by shell and plane from TLE"
  },
  {
    "OBJECT_NAME": "STARLINK-5923",
    "OBJECT_ID": "23064AT",
    "EPOCH": "2025-11-11T06:27:33.437664",
    "MEAN_MOTION": 14.98334906,
    "ECCENTRICITY": 0.000285,
    "INCLINATION": 70.0012,
    "RA_OF_ASC_NODE": 43.0626,
    "ARG_OF_PERICENTER": 267.8033,
    "MEAN_ANOMALY": 92.28,
    "EPHEMERIS_TYPE": 0,
    "CLASSIFICATION_TYPE": "U",
    "NORAD_CAT_ID": 56489,
    "ELEMENT_SET_NO": 999,
    "REV_AT_EPOCH": 13849,
    "BSTAR": 5.9512e-05,
    "MEAN_MOTION_DOT": 6.17e-06,
    "MEAN_MOTION_DDOT": 0.0,
    "TLE_LINE1": "1 56489U 23064AT  25315.26913701  .00000617  00000+0  59512-4 0  9991",
    "TLE_LINE2": "2 56489  70.0012  43.0626 0002850 267.8033  92.2800 14.98334906138492",
    "COMMENT": "Grouped by shell and plane from TLE"
  },
  {
    "OBJECT_NAME": "STARLINK-5873",
    "OBJECT_ID": "23064AU",
    "EPOCH": "2025-11-11T06:57:36.575424",
    "MEAN_MOTION": 14.98333317,
    "ECCENTRICITY": 0.00028,
    "INCLINATION": 70.0015,
    "RA_OF_ASC_NODE": 43.1364,
    "ARG_OF_PERICENTER": 260.8778,
    "MEAN_ANOMALY": 99.2064,
    "EPHEMERIS_TYPE": 0,
    "CLASSIFICATION_TYPE": "U",
    "NORAD_CAT_ID": 56490,
    "ELEMENT_SET_NO": 999,
    "REV_AT_EPOCH": 13849,
    "BSTAR": 3.9025e-05,
    "MEAN_MOTION_DOT": 3.73e-06,
    "MEAN_MOTION_DDOT": 0.0,
    "TLE_LINE1": "1 56490U 23064AU  25315.29000666  .00000373  00000+0  39025-4 0  9999",
    "TLE_LINE2": "2 56490  70.0015  43.1364 0002800 260.8778  99.2064 14.98333317138495",
    "COMMENT": "Grouped by shell and plane from TLE"
  }
]